DELTA 2 R/B(1)          
1 20453U 90008B   26002.73651578  .00065594  00000+0  98849-3 0  9992
2 20453  35.6046 244.7588 0106096   8.8840 351.3743 15.47316395915889
COSMOS 2058             
1 20465U 90010A   26002.75656108  .00007745  00000+0  46532-3 0  9990
2 20465  82.4720 112.3596 0010063 197.4948 162.5937 15.10710301932287
SL-14 R/B               
1 20466U 90010B   26002.38538123  .00000942  00000+0  11126-3 0  9999
2 20466  82.5031 329.6566 0020418 154.2696 205.9540 14.83495832918655
SL-14 R/B               
1 20511U 90018B   26002.74443347  .00000917  00000+0  11237-3 0  9996
2 20511  82.5220 284.7342 0015304 312.9758  47.0172 14.82073608912819
HST                     
1 20580U 90037B   26002.68980626  .00011054  00000+0  38065-3 0  9994
2 20580  28.4662 129.8555 0002576 100.7154 259.3731 15.28357150763203
SL-16 R/B               
1 20625U 90046B   26002.60019677  .00000312  00000+0  18538-3 0  9993
2 20625  70.9994  76.7135 0012695  38.0060 322.1956 14.14999905839047
COSMOS 2084             
1 20663U 90055A   26002.76224146  .00005730  00000+0  41039-3 0  9992
2 20663  62.7888 200.3547 0028315 177.6915 182.4321 15.05167726926394
SL-6 R/B(2)             
1 20666U 90055D   26002.65648348  .00004615  00000+0  35301-3 0  9993
2 20666  62.7839 118.3377 0015281 322.5027  37.5005 15.03200813928265
SL-8 R/B                
1 20775U 90078B   26002.60108645  .00020137  00000+0  61759-3 0  9998
2 20775  82.9065 310.6267 0369325 235.6264 120.9515 14.86696899799479
SL-8 R/B                
1 21088U 91006B   26002.67036677  .00000056  00000+0  40980-4 0  9992
2 21088  82.9408 219.1437 0021649 217.9248 204.0466 13.77492906754987
OKEAN-3                 
1 21397U 91039A   26002.50388884  .00005866  00000+0  41886-3 0  9992
2 21397  82.5156  40.9456 0013928 189.4917 170.6049 15.04267945855087
COSMOS 2151             
1 21422U 91042A   26002.77357424  .00003712  00000+0  29781-3 0  9998
2 21422  82.4971 147.2327 0011168 283.5794  76.4186 14.99791698853310
