CCSDS_OMM_VERS = 2.0
CREATION_DATE  = 
ORIGINATOR     = 

OBJECT_NAME    = DELTA 2 R/B(1)
OBJECT_ID      = 1990-008B
CENTER_NAME    = EARTH
REF_FRAME      = TEME
TIME_SYSTEM    = UTC
MEAN_ELEMENT_THEORY = SGP/SGP4

EPOCH          = 2026-01-02T17:40:34.963392
MEAN_MOTION    = 15.47316395
ECCENTRICITY   = .0106096
INCLINATION    = 35.6046
RA_OF_ASC_NODE = 244.7588
ARG_OF_PERICENTER = 8.8840
MEAN_ANOMALY   = 351.3743

EPHEMERIS_TYPE = 0
CLASSIFICATION_TYPE = U
NORAD_CAT_ID   = 20453
ELEMENT_SET_NO = 999
REV_AT_EPOCH   = 91588
BSTAR          = .98849E-3
MEAN_MOTION_DOT = .65594E-3
MEAN_MOTION_DDOT = 0

CCSDS_OMM_VERS = 2.0
CREATION_DATE  = 
ORIGINATOR     = 

OBJECT_NAME    = COSMOS 2058
OBJECT_ID      = 1990-010A
CENTER_NAME    = EARTH
REF_FRAME      = TEME
TIME_SYSTEM    = UTC
MEAN_ELEMENT_THEORY = SGP/SGP4

EPOCH          = 2026-01-02T18:09:26.877312
MEAN_MOTION    = 15.10710301
ECCENTRICITY   = .0010063
INCLINATION    = 82.4720
RA_OF_ASC_NODE = 112.3596
ARG_OF_PERICENTER = 197.4948
MEAN_ANOMALY   = 162.5937

EPHEMERIS_TYPE = 0
CLASSIFICATION_TYPE = U
NORAD_CAT_ID   = 20465
ELEMENT_SET_NO = 999
REV_AT_EPOCH   = 93228
BSTAR          = .46532E-3
MEAN_MOTION_DOT = .7745E-4
MEAN_MOTION_DDOT = 0

CCSDS_OMM_VERS = 2.0
CREATION_DATE  = 
ORIGINATOR     = 

OBJECT_NAME    = SL-14 R/B
OBJECT_ID      = 1990-010B
CENTER_NAME    = EARTH
REF_FRAME      = TEME
TIME_SYSTEM    = UTC
MEAN_ELEMENT_THEORY = SGP/SGP4

EPOCH          = 2026-01-02T09:14:56.938272
MEAN_MOTION    = 14.83495832
ECCENTRICITY   = .0020418
INCLINATION    = 82.5031
RA_OF_ASC_NODE = 329.6566
ARG_OF_PERICENTER = 154.2696
MEAN_ANOMALY   = 205.9540

EPHEMERIS_TYPE = 0
CLASSIFICATION_TYPE = U
NORAD_CAT_ID   = 20466
ELEMENT_SET_NO = 999
REV_AT_EPOCH   = 91865
BSTAR          = .11126E-3
MEAN_MOTION_DOT = .942E-5
MEAN_MOTION_DDOT = 0

CCSDS_OMM_VERS = 2.0
CREATION_DATE  = 
ORIGINATOR     = 

OBJECT_NAME    = SL-14 R/B
OBJECT_ID      = 1990-018B
CENTER_NAME    = EARTH
REF_FRAME      = TEME
TIME_SYSTEM    = UTC
MEAN_ELEMENT_THEORY = SGP/SGP4

EPOCH          = 2026-01-02T17:51:59.051808
MEAN_MOTION    = 14.82073608
ECCENTRICITY   = .0015304
INCLINATION    = 82.5220
RA_OF_ASC_NODE = 284.7342
ARG_OF_PERICENTER = 312.9758
MEAN_ANOMALY   = 47.0172

EPHEMERIS_TYPE = 0
CLASSIFICATION_TYPE = U
NORAD_CAT_ID   = 20511
ELEMENT_SET_NO = 999
REV_AT_EPOCH   = 91281
BSTAR          = .11237E-3
MEAN_MOTION_DOT = .917E-5
MEAN_MOTION_DDOT = 0

CCSDS_OMM_VERS = 2.0
CREATION_DATE  = 
ORIGINATOR     = 

OBJECT_NAME    = HST
OBJECT_ID      = 1990-037B
CENTER_NAME    = EARTH
REF_FRAME      = TEME
TIME_SYSTEM    = UTC
MEAN_ELEMENT_THEORY = SGP/SGP4

EPOCH          = 2026-01-02T16:33:19.260864
MEAN_MOTION    = 15.28357150
ECCENTRICITY   = .0002576
INCLINATION    = 28.4662
RA_OF_ASC_NODE = 129.8555
ARG_OF_PERICENTER = 100.7154
MEAN_ANOMALY   = 259.3731

EPHEMERIS_TYPE = 0
CLASSIFICATION_TYPE = U
NORAD_CAT_ID   = 20580
ELEMENT_SET_NO = 999
REV_AT_EPOCH   = 76320
BSTAR          = .38065E-3
MEAN_MOTION_DOT = .11054E-3
MEAN_MOTION_DDOT = 0

CCSDS_OMM_VERS = 2.0
CREATION_DATE  = 
ORIGINATOR     = 

OBJECT_NAME    = SL-16 R/B
OBJECT_ID      = 1990-046B
CENTER_NAME    = EARTH
REF_FRAME      = TEME
TIME_SYSTEM    = UTC
MEAN_ELEMENT_THEORY = SGP/SGP4

EPOCH          = 2026-01-02T14:24:17.000928
MEAN_MOTION    = 14.14999905
ECCENTRICITY   = .0012695
INCLINATION    = 70.9994
RA_OF_ASC_NODE = 76.7135
ARG_OF_PERICENTER = 38.0060
MEAN_ANOMALY   = 322.1956

EPHEMERIS_TYPE = 0
CLASSIFICATION_TYPE = U
NORAD_CAT_ID   = 20625
ELEMENT_SET_NO = 999
REV_AT_EPOCH   = 83904
BSTAR          = .18538E-3
MEAN_MOTION_DOT = .312E-5
MEAN_MOTION_DDOT = 0

CCSDS_OMM_VERS = 2.0
CREATION_DATE  = 
ORIGINATOR     = 

OBJECT_NAME    = COSMOS 2084
OBJECT_ID      = 1990-055A
CENTER_NAME    = EARTH
REF_FRAME      = TEME
TIME_SYSTEM    = UTC
MEAN_ELEMENT_THEORY = SGP/SGP4

EPOCH          = 2026-01-02T18:17:37.662144
MEAN_MOTION    = 15.05167726
ECCENTRICITY   = .0028315
INCLINATION    = 62.7888
RA_OF_ASC_NODE = 200.3547
ARG_OF_PERICENTER = 177.6915
MEAN_ANOMALY   = 182.4321

EPHEMERIS_TYPE = 0
CLASSIFICATION_TYPE = U
NORAD_CAT_ID   = 20663
ELEMENT_SET_NO = 999
REV_AT_EPOCH   = 92639
BSTAR          = .41039E-3
MEAN_MOTION_DOT = .573E-4
MEAN_MOTION_DDOT = 0

CCSDS_OMM_VERS = 2.0
CREATION_DATE  = 
ORIGINATOR     = 

OBJECT_NAME    = SL-6 R/B(2)
OBJECT_ID      = 1990-055D
CENTER_NAME    = EARTH
REF_FRAME      = TEME
TIME_SYSTEM    = UTC
MEAN_ELEMENT_THEORY = SGP/SGP4

EPOCH          = 2026-01-02T15:45:20.172672
MEAN_MOTION    = 15.03200813
ECCENTRICITY   = .0015281
INCLINATION    = 62.7839
RA_OF_ASC_NODE = 118.3377
ARG_OF_PERICENTER = 322.5027
MEAN_ANOMALY   = 37.5005

EPHEMERIS_TYPE = 0
CLASSIFICATION_TYPE = U
NORAD_CAT_ID   = 20666
ELEMENT_SET_NO = 999
REV_AT_EPOCH   = 92826
BSTAR          = .35301E-3
MEAN_MOTION_DOT = .4615E-4
MEAN_MOTION_DDOT = 0

CCSDS_OMM_VERS = 2.0
CREATION_DATE  = 
ORIGINATOR     = 

OBJECT_NAME    = SL-8 R/B
OBJECT_ID      = 1990-078B
CENTER_NAME    = EARTH
REF_FRAME      = TEME
TIME_SYSTEM    = UTC
MEAN_ELEMENT_THEORY = SGP/SGP4

EPOCH          = 2026-01-02T14:25:33.869280
MEAN_MOTION    = 14.86696899
ECCENTRICITY   = .0369325
INCLINATION    = 82.9065
RA_OF_ASC_NODE = 310.6267
ARG_OF_PERICENTER = 235.6264
MEAN_ANOMALY   = 120.9515

EPHEMERIS_TYPE = 0
CLASSIFICATION_TYPE = U
NORAD_CAT_ID   = 20775
ELEMENT_SET_NO = 999
REV_AT_EPOCH   = 79947
BSTAR          = .61759E-3
MEAN_MOTION_DOT = .20137E-3
MEAN_MOTION_DDOT = 0

CCSDS_OMM_VERS = 2.0
CREATION_DATE  = 
ORIGINATOR     = 

OBJECT_NAME    = SL-8 R/B
OBJECT_ID      = 1991-006B
CENTER_NAME    = EARTH
REF_FRAME      = TEME
TIME_SYSTEM    = UTC
MEAN_ELEMENT_THEORY = SGP/SGP4

EPOCH          = 2026-01-02T16:05:19.688928
MEAN_MOTION    = 13.77492906
ECCENTRICITY   = .0021649
INCLINATION    = 82.9408
RA_OF_ASC_NODE = 219.1437
ARG_OF_PERICENTER = 217.9248
MEAN_ANOMALY   = 204.0466

EPHEMERIS_TYPE = 0
CLASSIFICATION_TYPE = U
NORAD_CAT_ID   = 21088
ELEMENT_SET_NO = 999
REV_AT_EPOCH   = 75498
BSTAR          = .4098E-4
MEAN_MOTION_DOT = .56E-6
MEAN_MOTION_DDOT = 0

CCSDS_OMM_VERS = 2.0
CREATION_DATE  = 
ORIGINATOR     = 

OBJECT_NAME    = OKEAN-3
OBJECT_ID      = 1991-039A
CENTER_NAME    = EARTH
REF_FRAME      = TEME
TIME_SYSTEM    = UTC
MEAN_ELEMENT_THEORY = SGP/SGP4

EPOCH          = 2026-01-02T12:05:35.995776
MEAN_MOTION    = 15.04267945
ECCENTRICITY   = .0013928
INCLINATION    = 82.5156
RA_OF_ASC_NODE = 40.9456
ARG_OF_PERICENTER = 189.4917
MEAN_ANOMALY   = 170.6049

EPHEMERIS_TYPE = 0
CLASSIFICATION_TYPE = U
NORAD_CAT_ID   = 21397
ELEMENT_SET_NO = 999
REV_AT_EPOCH   = 85508
BSTAR          = .41886E-3
MEAN_MOTION_DOT = .5866E-4
MEAN_MOTION_DDOT = 0

CCSDS_OMM_VERS = 2.0
CREATION_DATE  = 
ORIGINATOR     = 

OBJECT_NAME    = COSMOS 2151
OBJECT_ID      = 1991-042A
CENTER_NAME    = EARTH
REF_FRAME      = TEME
TIME_SYSTEM    = UTC
MEAN_ELEMENT_THEORY = SGP/SGP4

EPOCH          = 2026-01-02T18:33:56.814336
MEAN_MOTION    = 14.99791698
ECCENTRICITY   = .0011168
INCLINATION    = 82.4971
RA_OF_ASC_NODE = 147.2327
ARG_OF_PERICENTER = 283.5794
MEAN_ANOMALY   = 76.4186

EPHEMERIS_TYPE = 0
CLASSIFICATION_TYPE = U
NORAD_CAT_ID   = 21422
ELEMENT_SET_NO = 999
REV_AT_EPOCH   = 85331
BSTAR          = .29781E-3
MEAN_MOTION_DOT = .3712E-4
MEAN_MOTION_DDOT = 0

